{
 "generated_at": "2026-06-13T08:21:29Z",
 "sources": [
  {
   "name": "CelesTrak",
   "url": "https://celestrak.org/NORAD/elements/",
   "license": "frei verfügbar; Attribution. Ursprünglich USSPACECOM/Space-Track."
  },
  {
   "name": "GCAT (J. McDowell, planet4589.org)",
   "url": "https://planet4589.org/space/gcat/",
   "license": "CC-BY 4.0"
  }
 ],
 "satellites": [
  {
   "norad": 67371,
   "name": "UMBRA-12",
   "intl": "2026-004J",
   "group": "sar",
   "gcat": {
    "class": "B",
    "category": "IMG-R",
    "owner": "UMBRA",
    "state": "US"
   },
   "omm": {
    "OBJECT_NAME": "UMBRA-12",
    "OBJECT_ID": "2026-004J",
    "EPOCH": "2026-06-12T20:59:07.157760",
    "MEAN_MOTION": 14.89284364,
    "ECCENTRICITY": 0.0007315,
    "INCLINATION": 97.8005,
    "RA_OF_ASC_NODE": 162.7039,
    "ARG_OF_PERICENTER": 134.8316,
    "MEAN_ANOMALY": 225.3496,
    "EPHEMERIS_TYPE": 0,
    "CLASSIFICATION_TYPE": "U",
    "NORAD_CAT_ID": 67371,
    "ELEMENT_SET_NO": 999,
    "REV_AT_EPOCH": 2266,
    "BSTAR": 0.00052065,
    "MEAN_MOTION_DOT": 0.00004881,
    "MEAN_MOTION_DDOT": 0
   }
  },
  {
   "norad": 39160,
   "name": "VNREDSAT 1",
   "intl": "2013-021B",
   "group": "resource",
   "gcat": {
    "class": "C",
    "category": "IMG",
    "owner": "VAST",
    "state": "VN"
   },
   "omm": {
    "OBJECT_NAME": "VNREDSAT 1",
    "OBJECT_ID": "2013-021B",
    "EPOCH": "2026-06-12T20:29:43.193760",
    "MEAN_MOTION": 14.64851908,
    "ECCENTRICITY": 0.0001693,
    "INCLINATION": 97.9086,
    "RA_OF_ASC_NODE": 217.4366,
    "ARG_OF_PERICENTER": 89.0597,
    "MEAN_ANOMALY": 271.0801,
    "EPHEMERIS_TYPE": 0,
    "CLASSIFICATION_TYPE": "U",
    "NORAD_CAT_ID": 39160,
    "ELEMENT_SET_NO": 999,
    "REV_AT_EPOCH": 69965,
    "BSTAR": 0.000079007,
    "MEAN_MOTION_DOT": 0.00000377,
    "MEAN_MOTION_DDOT": 0
   }
  },
  {
   "norad": 32060,
   "name": "WORLDVIEW-1 (WV-1)",
   "intl": "2007-041A",
   "group": "resource",
   "gcat": {
    "class": "B",
    "category": "IMG",
    "owner": "DGLO",
    "state": "US"
   },
   "omm": {
    "OBJECT_NAME": "WORLDVIEW-1 (WV-1)",
    "OBJECT_ID": "2007-041A",
    "EPOCH": "2026-06-12T19:52:17.815008",
    "MEAN_MOTION": 15.24220409,
    "ECCENTRICITY": 0.0002671,
    "INCLINATION": 97.3869,
    "RA_OF_ASC_NODE": 283.6345,
    "ARG_OF_PERICENTER": 33.8364,
    "MEAN_ANOMALY": 326.3044,
    "EPHEMERIS_TYPE": 0,
    "CLASSIFICATION_TYPE": "U",
    "NORAD_CAT_ID": 32060,
    "ELEMENT_SET_NO": 999,
    "REV_AT_EPOCH": 4221,
    "BSTAR": 0.00025339,
    "MEAN_MOTION_DOT": 0.00006108,
    "MEAN_MOTION_DDOT": 0
   }
  },
  {
   "norad": 35946,
   "name": "WORLDVIEW-2 (WV-2)",
   "intl": "2009-055A",
   "group": "resource",
   "gcat": {
    "class": "B",
    "category": "IMG",
    "owner": "DGLO",
    "state": "US"
   },
   "omm": {
    "OBJECT_NAME": "WORLDVIEW-2 (WV-2)",
    "OBJECT_ID": "2009-055A",
    "EPOCH": "2026-06-12T20:23:13.422624",
    "MEAN_MOTION": 14.37898215,
    "ECCENTRICITY": 0.0003461,
    "INCLINATION": 98.4736,
    "RA_OF_ASC_NODE": 237.3587,
    "ARG_OF_PERICENTER": 223.2562,
    "MEAN_ANOMALY": 136.8354,
    "EPHEMERIS_TYPE": 0,
    "CLASSIFICATION_TYPE": "U",
    "NORAD_CAT_ID": 35946,
    "ELEMENT_SET_NO": 999,
    "REV_AT_EPOCH": 87502,
    "BSTAR": 0.000049626,
    "MEAN_MOTION_DOT": 0.00000106,
    "MEAN_MOTION_DDOT": 0
   }
  },
  {
   "norad": 40115,
   "name": "WORLDVIEW-3 (WV-3)",
   "intl": "2014-048A",
   "group": "resource",
   "gcat": {
    "class": "B",
    "category": "IMG",
    "owner": "DGLO",
    "state": "US"
   },
   "omm": {
    "OBJECT_NAME": "WORLDVIEW-3 (WV-3)",
    "OBJECT_ID": "2014-048A",
    "EPOCH": "2026-06-12T20:31:13.265760",
    "MEAN_MOTION": 14.85015337,
    "ECCENTRICITY": 0.000133,
    "INCLINATION": 97.8566,
    "RA_OF_ASC_NODE": 238.7476,
    "ARG_OF_PERICENTER": 31.8255,
    "MEAN_ANOMALY": 328.304,
    "EPHEMERIS_TYPE": 0,
    "CLASSIFICATION_TYPE": "U",
    "NORAD_CAT_ID": 40115,
    "ELEMENT_SET_NO": 999,
    "REV_AT_EPOCH": 64126,
    "BSTAR": 0.00010014,
    "MEAN_MOTION_DOT": 0.00000801,
    "MEAN_MOTION_DDOT": 0
   }
  },
  {
   "norad": 36834,
   "name": "YAOGAN-10",
   "intl": "2010-038A",
   "group": "resource",
   "gcat": {
    "class": null,
    "category": null,
    "owner": null,
    "state": null
   },
   "omm": {
    "OBJECT_NAME": "YAOGAN-10",
    "OBJECT_ID": "2010-038A",
    "EPOCH": "2026-06-12T21:58:42.206592",
    "MEAN_MOTION": 14.85337334,
    "ECCENTRICITY": 0.0001714,
    "INCLINATION": 97.8982,
    "RA_OF_ASC_NODE": 187.3539,
    "ARG_OF_PERICENTER": 90.4268,
    "MEAN_ANOMALY": 28.0759,
    "EPHEMERIS_TYPE": 0,
    "CLASSIFICATION_TYPE": "U",
    "NORAD_CAT_ID": 36834,
    "ELEMENT_SET_NO": 999,
    "REV_AT_EPOCH": 85657,
    "BSTAR": 0.00022829,
    "MEAN_MOTION_DOT": 0.00001909,
    "MEAN_MOTION_DDOT": 0
   }
  },
  {
   "norad": 40143,
   "name": "YAOGAN-21",
   "intl": "2014-053A",
   "group": "resource",
   "gcat": {
    "class": "D",
    "category": "IMG",
    "owner": "ZZB",
    "state": "CN"
   },
   "omm": {
    "OBJECT_NAME": "YAOGAN-21",
    "OBJECT_ID": "2014-053A",
    "EPOCH": "2026-06-12T20:03:29.591424",
    "MEAN_MOTION": 15.26311876,
    "ECCENTRICITY": 0.0009921,
    "INCLINATION": 97.1485,
    "RA_OF_ASC_NODE": 204.2576,
    "ARG_OF_PERICENTER": 106.0635,
    "MEAN_ANOMALY": 254.1697,
    "EPHEMERIS_TYPE": 0,
    "CLASSIFICATION_TYPE": "U",
    "NORAD_CAT_ID": 40143,
    "ELEMENT_SET_NO": 999,
    "REV_AT_EPOCH": 65429,
    "BSTAR": 0.00030097,
    "MEAN_MOTION_DOT": 0.00007754,
    "MEAN_MOTION_DDOT": 0
   }
  },
  {
   "norad": 40275,
   "name": "YAOGAN-22",
   "intl": "2014-063A",
   "group": "resource",
   "gcat": {
    "class": null,
    "category": null,
    "owner": null,
    "state": null
   },
   "omm": {
    "OBJECT_NAME": "YAOGAN-22",
    "OBJECT_ID": "2014-063A",
    "EPOCH": "2026-06-12T20:25:07.221792",
    "MEAN_MOTION": 13.15530938,
    "ECCENTRICITY": 0.000624,
    "INCLINATION": 100.7718,
    "RA_OF_ASC_NODE": 315.0521,
    "ARG_OF_PERICENTER": 195.0471,
    "MEAN_ANOMALY": 165.0456,
    "EPHEMERIS_TYPE": 0,
    "CLASSIFICATION_TYPE": "U",
    "NORAD_CAT_ID": 40275,
    "ELEMENT_SET_NO": 999,
    "REV_AT_EPOCH": 55924,
    "BSTAR": 0.000024184,
    "MEAN_MOTION_DOT": -3.8e-7,
    "MEAN_MOTION_DDOT": 0
   }
  },
  {
   "norad": 40310,
   "name": "YAOGAN-24",
   "intl": "2014-072A",
   "group": "resource",
   "gcat": {
    "class": "D",
    "category": "IMG",
    "owner": "ZZB",
    "state": "CN"
   },
   "omm": {
    "OBJECT_NAME": "YAOGAN-24",
    "OBJECT_ID": "2014-072A",
    "EPOCH": "2026-06-12T21:06:41.696064",
    "MEAN_MOTION": 14.76218757,
    "ECCENTRICITY": 0.0012549,
    "INCLINATION": 98.1475,
    "RA_OF_ASC_NODE": 301.1816,
    "ARG_OF_PERICENTER": 278.9974,
    "MEAN_ANOMALY": 80.9814,
    "EPHEMERIS_TYPE": 0,
    "CLASSIFICATION_TYPE": "U",
    "NORAD_CAT_ID": 40310,
    "ELEMENT_SET_NO": 999,
    "REV_AT_EPOCH": 62308,
    "BSTAR": 0.00015124,
    "MEAN_MOTION_DOT": 0.00000994,
    "MEAN_MOTION_DDOT": 0
   }
  },
  {
   "norad": 40362,
   "name": "YAOGAN-26",
   "intl": "2014-088A",
   "group": "resource",
   "gcat": {
    "class": "D",
    "category": "IMG",
    "owner": "ZZB",
    "state": "CN"
   },
   "omm": {
    "OBJECT_NAME": "YAOGAN-26",
    "OBJECT_ID": "2014-088A",
    "EPOCH": "2026-06-12T20:45:51.477696",
    "MEAN_MOTION": 15.47187476,
    "ECCENTRICITY": 0.0006341,
    "INCLINATION": 97.0637,
    "RA_OF_ASC_NODE": 164.1758,
    "ARG_OF_PERICENTER": 76.0747,
    "MEAN_ANOMALY": 284.1209,
    "EPHEMERIS_TYPE": 0,
    "CLASSIFICATION_TYPE": "U",
    "NORAD_CAT_ID": 40362,
    "ELEMENT_SET_NO": 999,
    "REV_AT_EPOCH": 63703,
    "BSTAR": 0.00059765,
    "MEAN_MOTION_DOT": 0.00030376,
    "MEAN_MOTION_DDOT": 0
   }
  },
  {
   "norad": 40878,
   "name": "YAOGAN-27",
   "intl": "2015-040A",
   "group": "resource",
   "gcat": {
    "class": "D",
    "category": "IMG",
    "owner": "ZZB",
    "state": "CN"
   },
   "omm": {
    "OBJECT_NAME": "YAOGAN-27",
    "OBJECT_ID": "2015-040A",
    "EPOCH": "2026-06-12T20:20:16.546272",
    "MEAN_MOTION": 13.16071094,
    "ECCENTRICITY": 0.0007574,
    "INCLINATION": 100.1148,
    "RA_OF_ASC_NODE": 150.4179,
    "ARG_OF_PERICENTER": 220.9596,
    "MEAN_ANOMALY": 139.0949,
    "EPHEMERIS_TYPE": 0,
    "CLASSIFICATION_TYPE": "U",
    "NORAD_CAT_ID": 40878,
    "ELEMENT_SET_NO": 999,
    "REV_AT_EPOCH": 51709,
    "BSTAR": 0.00076008,
    "MEAN_MOTION_DOT": 0.00000246,
    "MEAN_MOTION_DDOT": 0
   }
  },
  {
   "norad": 41026,
   "name": "YAOGAN-28",
   "intl": "2015-064A",
   "group": "resource",
   "gcat": {
    "class": "D",
    "category": "IMG",
    "owner": "ZZB",
    "state": "CN"
   },
   "omm": {
    "OBJECT_NAME": "YAOGAN-28",
    "OBJECT_ID": "2015-064A",
    "EPOCH": "2026-06-12T20:49:42.977856",
    "MEAN_MOTION": 15.27370137,
    "ECCENTRICITY": 0.0010231,
    "INCLINATION": 97.3063,
    "RA_OF_ASC_NODE": 302.2177,
    "ARG_OF_PERICENTER": 198.5787,
    "MEAN_ANOMALY": 161.508,
    "EPHEMERIS_TYPE": 0,
    "CLASSIFICATION_TYPE": "U",
    "NORAD_CAT_ID": 41026,
    "ELEMENT_SET_NO": 999,
    "REV_AT_EPOCH": 59002,
    "BSTAR": 0.00029954,
    "MEAN_MOTION_DOT": 0.00007967,
    "MEAN_MOTION_DDOT": 0
   }
  },
  {
   "norad": 41038,
   "name": "YAOGAN-29",
   "intl": "2015-069A",
   "group": "resource",
   "gcat": {
    "class": "D",
    "category": "IMG-R",
    "owner": "ZZB",
    "state": "CN"
   },
   "omm": {
    "OBJECT_NAME": "YAOGAN-29",
    "OBJECT_ID": "2015-069A",
    "EPOCH": "2026-06-12T20:38:11.040864",
    "MEAN_MOTION": 14.83082603,
    "ECCENTRICITY": 0.0002837,
    "INCLINATION": 98.0035,
    "RA_OF_ASC_NODE": 192.4858,
    "ARG_OF_PERICENTER": 61.5524,
    "MEAN_ANOMALY": 298.5975,
    "EPHEMERIS_TYPE": 0,
    "CLASSIFICATION_TYPE": "U",
    "NORAD_CAT_ID": 41038,
    "ELEMENT_SET_NO": 999,
    "REV_AT_EPOCH": 56998,
    "BSTAR": 0.000060961,
    "MEAN_MOTION_DOT": 0.00000442,
    "MEAN_MOTION_DDOT": 0
   }
  }
 ]
}
